SL-3 R/B                
1 19046U 88032B   23197.37975625  .00003892  00000+0  26538-3 0  9995
2 19046  97.4151 185.1140 0033879 336.3734  23.5935 15.06335593906145
SL-16 R/B               
1 19120U 88039B   23197.36131425  .00000171  00000+0  10424-3 0  9990
2 19120  71.0159 313.4968 0021175  18.2033 341.9845 14.19323878821387
COSMOS 1953             
1 19210U 88050A   23196.79920613  .00003621  00000+0  21816-3 0  9994
2 19210  82.5147  37.3858 0014820 254.4101 105.5493 15.10418630911993
SL-8 R/B                
1 19257U 88053B   23197.09926601  .00000264  00000+0  95852-4 0  9997
2 19257  74.0483  94.4687 0020120 158.1569 305.5884 14.37866420837754
COSMOS 1975             
1 19573U 88093A   23197.43576049  .00004349  00000+0  26894-3 0  9994
2 19573  82.5346 353.3982 0014422 300.4022  59.5781 15.09517669893826
SL-14 R/B               
1 19574U 88093B   23197.34186019  .00000479  00000+0  54593-4 0  9997
2 19574  82.5301 228.8248 0021247 359.7151  11.1369 14.83928883878589
SL-16 R/B               
1 19650U 88102B   23196.98123994  .00000144  00000+0  97152-4 0  9992
2 19650  71.0004  27.2319 0012905  37.0941 323.1071 14.15901373790186
INTERCOSMOS 24          
1 20261U 89080A   23196.81952108  .00000568  00000+0  16392-3 0  9993
2 20261  82.6063  12.9342 1198764  14.7029 348.5923 12.57144561544652
SL-14 R/B               
1 20262U 89080C   23196.91281451  .00000191  00000+0  56701-4 0  9992
2 20262  82.5932  74.1701 1234288 235.0483 112.8565 12.49393777538811
DELTA 2 R/B(1)          
1 20303U 89085B   23196.67662584  .00071889  00000+0  63569-3 0  9997
2 20303  35.6318  67.2760 0037134 213.6809 146.1569 15.66532903840803
DELTA 1 R/B             
1 20323U 89089B   23197.19334655  .00000461  00000+0  12736-3 0  9994
2 20323  97.0696 180.1761 0069602 294.6572  64.7387 14.48926668776077
ARIANE 40 R/B           
1 20443U 90005H   23197.14815890  .00000354  00000+0  13003-3 0  9996
2 20443  98.4379 264.1689 0009548 223.5609 136.4825 14.38551097753898
DELTA 2 R/B(1)          
1 20453U 90008B   23197.08726694  .00014911  00000+0  68937-3 0  9996
2 20453  35.6224  74.9992 0239370  15.0807 345.6897 14.97503865778779
COSMOS 2058             
1 20465U 90010A   23196.68120427  .00002973  00000+0  23197-3 0  9993
2 20465  82.4880 271.1981 0014797  16.9677 343.2039 15.00744202817670
SL-14 R/B               
1 20466U 90010B   23196.72288304  .00000475  00000+0  56923-4 0  9997
2 20466  82.5030  95.3270 0018904 245.1255 114.7994 14.81945076806105
SL-14 R/B               
1 20511U 90018B   23196.99678653  .00000464  00000+0  57315-4 0  9999
2 20511  82.5218  46.4720 0018118  36.4640  78.2433 14.80579101800418
HST                     
1 20580U 90037B   23197.36194767  .00004037  00000+0  20956-3 0  9997
2 20580  28.4701  73.8469 0002524 339.2763 185.4749 15.13481112626157
SL-16 R/B               
1 20625U 90046B   23196.41926375 -.00000165  00000+0 -60549-4 0  9993
2 20625  70.9975 171.0270 0015350 328.1662  31.8531 14.14756217711686
COSMOS 2084             
1 20663U 90055A   23196.75719930  .00003087  00000+0  24913-3 0  9997
2 20663  62.7928  12.2486 0132398  88.7393 272.8866 14.95506797791065
SL-6 R/B(2)             
1 20666U 90055D   23196.69441344  .00003063  00000+0  25335-3 0  9997
2 20666  62.7850 286.1710 0122792 110.2658 251.1687 14.95492110792487
SL-8 R/B                
1 20775U 90078B   23197.13533502  .00005143  00000+0  22772-3 0  9994
2 20775  82.9209  13.2936 0513546 289.5531  65.0910 14.48952870667327
SL-8 R/B                
1 21088U 91006B   23197.16556678  .00000010  00000+0 -49783-5 0  9998
2 21088  82.9429 169.6946 0021422 222.2860 148.0671 13.77260271631158
OKEAN-3                 
1 21397U 91039A   23196.45127650  .00003016  00000+0  26862-3 0  9991
2 21397  82.5197 188.0438 0017260  13.5877 346.5805 14.95619100740957
COSMOS 2151             
1 21422U 91042A   23197.01164416  .00001792  00000+0  16524-3 0  9991
2 21422  82.5006 292.4016 0015186  78.9497 281.3431 14.94045840739564
SL-14 R/B               
1 21423U 91042B   23196.84197398  .00000451  00000+0  55983-4 0  9991
2 21423  82.4926  46.7271 0017566 173.4809 186.6636 14.80313687730859
ERS-1                   
1 21574U 91050A   23196.19869525  .00000264  00000+0  10160-3 0  9992
2 21574  98.7434 175.9830 0032371 191.4342 168.6113 14.38172558676446
ARIANE 40 R/B           
1 21610U 91050F   23197.11784017  .00000407  00000+0  13858-3 0  9994
2 21610  98.3358 262.9993 0004376 114.2588 245.9059 14.41423203679805
INTERCOSMOS 25          
1 21819U 91086A   23197.31764874  .00003139  00000+0  61789-3 0  9996
2 21819  82.6044 172.6843 1509508  34.7043 334.3729 12.07169190379744
SL-8 R/B                
1 21876U 92008B   23196.73274441  .00000098  00000+0  86065-4 0  9991
2 21876  82.9263 267.4740 0033735 319.5685 190.1588 13.75754860576549
SL-8 R/B                
1 21938U 92020B   23196.16518663  .00000031  00000+0  16128-4 0  9998
2 21938  82.9312 153.0196 0030426 119.2747 251.7942 13.75351553568299
COSMOS 2219             
1 22219U 92076A   23197.42543982  .00000110  00000+0  82986-4 0  9997
2 22219  71.0597 239.5976 0020055 242.1462 117.7628 14.13772658581988
SL-16 R/B               
1 22220U 92076B   23197.11435556  .00000203  00000+0  12567-3 0  9992
2 22220  71.0008  66.0897 0011274 136.9913 336.2650 14.16572395585128
COSMOS 2221             
1 22236U 92080A   23196.30522113  .00001873  00000+0  19183-3 0  9995
2 22236  82.5080 121.8183 0015552 186.4454 173.6567 14.89896507657341
SL-16 R/B               
1 22285U 92093B   23197.38770583 -.00000242  00000+0 -10011-3 0  9990
2 22285  71.0197 234.4613 0005684 318.4093  41.6597 14.15170237576618
COSMOS 2228             
1 22286U 92094A   23197.14535794  .00001767  00000+0  17913-3 0  9998
2 22286  82.5189  78.5645 0019232 308.3075  51.6413 14.90247297652696
SL-16 R/B               
1 22566U 93016B   23197.41123781 -.00000224  00000+0 -90779-4 0  9994
2 22566  71.0085  86.3518 0010889 343.0374  17.0383 14.15070486565335
COSMOS 2242             
1 22626U 93024A   23197.24983849  .00001852  00000+0  18910-3 0  9992
2 22626  82.5216 107.1035 0017127 309.6624  50.3083 14.90013362636338
SL-16 R/B               
1 22803U 93059B   23197.41966181 -.00000064  00000+0 -76883-5 0  9997
2 22803  70.9887 250.4531 0019303 247.0474 112.8613 14.16941254542763
ARIANE 40 R/B           
1 22830U 93061H   23197.13395248  .00000257  00000+0  11282-3 0  9991
2 22830  98.6153 263.0272 0009746 259.9386 100.0698 14.31804215555849
COSMOS 2278             
1 23087U 94023A   23197.31788916  .00000343  00000+0  20560-3 0  9998
2 23087  71.0533  38.3761 0007279  61.8623 298.3235 14.13967759508298
SL-16 R/B               
1 23088U 94023B   23196.44144694 -.00000275  00000+0 -11801-3 0  9995
2 23088  71.0009 303.9247 0005058 305.0780  54.9868 14.14772791509400
SL-16 R/B               
1 23343U 94074B   23197.13444410  .00000549  00000+0  83981-4 0  9992
2 23343  97.8379 245.3414 0008068 118.4956 298.3235 14.77504190544495
SL-16 R/B               
1 23405U 94077B   23195.52619861 -.00000206  00000+0 -80916-4 0  9996
2 23405  70.9810 231.0273 0004026 232.2392 127.8366 14.15318244479369
ERS-2                   
1 23560U 95021A   23196.44496094  .00040786  00000+0  87699-3 0  9990
2 23560  98.5200 165.2512 0001224 130.1188 230.0165 15.44553235513536
ARIANE 40+ R/B          
1 23561U 95021B   23197.42723926  .00000344  00000+0  12734-3 0  9991
2 23561  98.5726 260.1799 0007621 146.0819 225.6008 14.38471473480349
SL-16 R/B               
1 23705U 95058B   23197.32285083 -.00000032  00000+0  77364-5 0  9994
2 23705  71.0229  50.8084 0011576 163.8257 196.3238 14.15241691431270
SL-16 R/B               
1 24298U 96051B   23196.92425709 -.00000023  00000+0  13883-4 0  9997
2 24298  70.8281  60.6398 0014641 134.9445 225.2866 14.12518401385252
ORBVIEW 2 (SEASTAR)     
1 24883U 97037A   23197.34623867  .00000336  00000+0  13642-3 0  9992
2 24883  98.7287 328.1173 0002996  50.8135 309.3315 14.34096392370017
SL-16 R/B               
1 25400U 98043G   23196.75808398  .00000072  00000+0  49174-4 0  9991
2 25400  98.7074 134.3756 0009024 309.7611  50.2773 14.25621447301283
SL-16 R/B               
1 25407U 98045B   23197.02440971 -.00000065  00000+0 -85431-5 0  9991
2 25407  71.0113  56.1190 0005706  50.0074 310.1550 14.15919924290381
ISS (ZARYA)             
1 25544U 98067A   23197.70649306  .00011173  00000+0  20497-3 0  9994
2 25544  51.6406 182.2513 0000398  71.2270 272.6175 15.49786621406363
CZ-4B R/B               
1 25732U 99025C   23196.90861279  .00000094  00000+0  67445-4 0  9999
2 25732  98.8016 240.9167 0036353 241.3296 291.7534 14.17835165251144
OKEAN-O                 
1 25860U 99039A   23196.73315440  .00000860  00000+0  12770-3 0  9992
2 25860  98.0869 243.8819 0001065 113.9465 246.1857 14.77582944291409
SL-16 R/B               
1 25861U 99039B   23197.34249721  .00000685  00000+0  99054-4 0  9995
2 25861  98.1363 235.0170 0016274 141.6505 218.5866 14.79392821293853
DELTA 2 R/B             
1 25876U 99041E   23197.28314579  .00002347  00000+0  43139-3 0  9990
2 25876  51.7606 189.8629 0524513  24.7414 337.7724 14.06468681226636
HELIOS 1B               
1 25977U 99064A   23196.67785369  .00000718  00000+0  94366-4 0  9997
2 25977  98.2904  51.3270 0001183  32.0009 328.1276 14.83460740272860
TERRA                   
1 25994U 99068A   23197.47200441  .00000540  00000+0  12384-3 0  9994
2 25994  98.0934 265.1329 0001598  31.2937  26.0486 14.59292508254057
SL-16 R/B               
1 26070U 00006B   23195.51768149 -.00000089  00000+0 -20914-4 0  9990
2 26070  71.0031 335.2507 0018057 222.3839 137.5890 14.15551227211374
TITAN 4B R/B            
1 26474U 00047B   23196.50745619  .00002606  00000+0  21913-3 0  9994
2 26474  67.9917 220.4920 0049025  37.2201 323.2324 14.99063530247381
